CCSDS_OMM_VERS = 2.0
CREATION_DATE  = 
ORIGINATOR     = 

OBJECT_NAME    = RSP-03
OBJECT_ID      = 1998-067XL
CENTER_NAME    = EARTH
REF_FRAME      = TEME
TIME_SYSTEM    = UTC
MEAN_ELEMENT_THEORY = SGP/SGP4

EPOCH          = 2026-02-02T21:49:59.806272
MEAN_MOTION    = 15.94343295
ECCENTRICITY   = .00052338
INCLINATION    = 51.6179
RA_OF_ASC_NODE = 226.8088
ARG_OF_PERICENTER = 241.8921
MEAN_ANOMALY   = 118.1558

EPHEMERIS_TYPE = 0
CLASSIFICATION_TYPE = U
NORAD_CAT_ID   = 65732
ELEMENT_SET_NO = 999
REV_AT_EPOCH   = 2140
BSTAR          = .13264137E-2
MEAN_MOTION_DOT = .508006E-2
MEAN_MOTION_DDOT = .11474469E-3

CCSDS_OMM_VERS = 2.0
CREATION_DATE  = 
ORIGINATOR     = 

OBJECT_NAME    = YOTSUBA-KULOVER
OBJECT_ID      = 1998-067XN
CENTER_NAME    = EARTH
REF_FRAME      = TEME
TIME_SYSTEM    = UTC
MEAN_ELEMENT_THEORY = SGP/SGP4

EPOCH          = 2026-02-02T23:38:06.260352
MEAN_MOTION    = 15.69363652
ECCENTRICITY   = .00042468
INCLINATION    = 51.6239
RA_OF_ASC_NODE = 235.6577
ARG_OF_PERICENTER = 213.0597
MEAN_ANOMALY   = 147.0135

EPHEMERIS_TYPE = 0
CLASSIFICATION_TYPE = U
NORAD_CAT_ID   = 65941
ELEMENT_SET_NO = 999
REV_AT_EPOCH   = 1803
BSTAR          = .89351479E-3
MEAN_MOTION_DOT = .107724E-2
MEAN_MOTION_DDOT = 0

CCSDS_OMM_VERS = 2.0
CREATION_DATE  = 
ORIGINATOR     = 

OBJECT_NAME    = BOTAN
OBJECT_ID      = 1998-067XP
CENTER_NAME    = EARTH
REF_FRAME      = TEME
TIME_SYSTEM    = UTC
MEAN_ELEMENT_THEORY = SGP/SGP4

EPOCH          = 2026-02-02T14:07:37.422048
MEAN_MOTION    = 15.80550278
ECCENTRICITY   = .00054898
INCLINATION    = 51.6178
RA_OF_ASC_NODE = 234.4784
ARG_OF_PERICENTER = 227.7528
MEAN_ANOMALY   = 132.3009

EPHEMERIS_TYPE = 0
CLASSIFICATION_TYPE = U
NORAD_CAT_ID   = 65942
ELEMENT_SET_NO = 999
REV_AT_EPOCH   = 1801
BSTAR          = .13892533E-2
MEAN_MOTION_DOT = .279051E-2
MEAN_MOTION_DDOT = 0

CCSDS_OMM_VERS = 2.0
CREATION_DATE  = 
ORIGINATOR     = 

OBJECT_NAME    = E-KAGAKU-1
OBJECT_ID      = 1998-067XQ
CENTER_NAME    = EARTH
REF_FRAME      = TEME
TIME_SYSTEM    = UTC
MEAN_ELEMENT_THEORY = SGP/SGP4

EPOCH          = 2026-02-02T14:28:33.635712
MEAN_MOTION    = 15.69186558
ECCENTRICITY   = .00032096
INCLINATION    = 51.6258
RA_OF_ASC_NODE = 237.6202
ARG_OF_PERICENTER = 222.3729
MEAN_ANOMALY   = 137.7021

EPHEMERIS_TYPE = 0
CLASSIFICATION_TYPE = U
NORAD_CAT_ID   = 65943
ELEMENT_SET_NO = 999
REV_AT_EPOCH   = 1797
BSTAR          = .89834931E-3
MEAN_MOTION_DOT = .107496E-2
MEAN_MOTION_DDOT = 0

CCSDS_OMM_VERS = 2.0
CREATION_DATE  = 
ORIGINATOR     = 

OBJECT_NAME    = HRC MONOBLOCK CAMERA
OBJECT_ID      = 1998-067XR
CENTER_NAME    = EARTH
REF_FRAME      = TEME
TIME_SYSTEM    = UTC
MEAN_ELEMENT_THEORY = SGP/SGP4

EPOCH          = 2026-02-02T23:42:05.758560
MEAN_MOTION    = 15.58616618
ECCENTRICITY   = .00003776
INCLINATION    = 51.6280
RA_OF_ASC_NODE = 240.1857
ARG_OF_PERICENTER = 15.4712
MEAN_ANOMALY   = 344.6292

EPHEMERIS_TYPE = 0
CLASSIFICATION_TYPE = U
NORAD_CAT_ID   = 66052
ELEMENT_SET_NO = 999
REV_AT_EPOCH   = 1697
BSTAR          = .57903438E-3
MEAN_MOTION_DOT = .45031E-3
MEAN_MOTION_DDOT = 0

CCSDS_OMM_VERS = 2.0
CREATION_DATE  = 
ORIGINATOR     = 

OBJECT_NAME    = HTV-X1
OBJECT_ID      = 2025-241A
CENTER_NAME    = EARTH
REF_FRAME      = TEME
TIME_SYSTEM    = UTC
MEAN_ELEMENT_THEORY = SGP/SGP4

EPOCH          = 2026-02-03T01:11:24.506880
MEAN_MOTION    = 15.48354905
ECCENTRICITY   = .00110162
INCLINATION    = 51.6308
RA_OF_ASC_NODE = 243.5964
ARG_OF_PERICENTER = 59.0626
MEAN_ANOMALY   = 301.1443

EPHEMERIS_TYPE = 0
CLASSIFICATION_TYPE = U
NORAD_CAT_ID   = 66174
ELEMENT_SET_NO = 999
REV_AT_EPOCH   = 51
BSTAR          = .19603946E-3
MEAN_MOTION_DOT = .10142E-3
MEAN_MOTION_DDOT = 0

CCSDS_OMM_VERS = 2.0
CREATION_DATE  = 
ORIGINATOR     = 

OBJECT_NAME    = SZ-21 MODULE
OBJECT_ID      = 2025-246C
CENTER_NAME    = EARTH
REF_FRAME      = TEME
TIME_SYSTEM    = UTC
MEAN_ELEMENT_THEORY = SGP/SGP4

EPOCH          = 2026-02-03T09:47:03.856992
MEAN_MOTION    = 15.65950989
ECCENTRICITY   = .0003243
INCLINATION    = 41.4756
RA_OF_ASC_NODE = 53.9721
ARG_OF_PERICENTER = 270.9806
MEAN_ANOMALY   = 89.0663

EPHEMERIS_TYPE = 0
CLASSIFICATION_TYPE = U
NORAD_CAT_ID   = 66515
ELEMENT_SET_NO = 999
REV_AT_EPOCH   = 1269
BSTAR          = .32677E-3
MEAN_MOTION_DOT = .34121E-3
MEAN_MOTION_DDOT = 0

CCSDS_OMM_VERS = 2.0
CREATION_DATE  = 
ORIGINATOR     = 

OBJECT_NAME    = SHENZHOU-22
OBJECT_ID      = 2025-272A
CENTER_NAME    = EARTH
REF_FRAME      = TEME
TIME_SYSTEM    = UTC
MEAN_ELEMENT_THEORY = SGP/SGP4

EPOCH          = 2026-02-03T06:30:01.078848
MEAN_MOTION    = 15.59135359
ECCENTRICITY   = .00062477
INCLINATION    = 41.4675
RA_OF_ASC_NODE = 57.3449
ARG_OF_PERICENTER = 348.4531
MEAN_ANOMALY   = 11.6163

EPHEMERIS_TYPE = 0
CLASSIFICATION_TYPE = U
NORAD_CAT_ID   = 66645
ELEMENT_SET_NO = 999
REV_AT_EPOCH   = 26764
BSTAR          = .22202484E-3
MEAN_MOTION_DOT = .17586E-3
MEAN_MOTION_DDOT = 0

CCSDS_OMM_VERS = 2.0
CREATION_DATE  = 
ORIGINATOR     = 

OBJECT_NAME    = SOYUZ-MS 28
OBJECT_ID      = 2025-275A
CENTER_NAME    = EARTH
REF_FRAME      = TEME
TIME_SYSTEM    = UTC
MEAN_ELEMENT_THEORY = SGP/SGP4

EPOCH          = 2026-02-03T01:11:24.500832
MEAN_MOTION    = 15.48354885
ECCENTRICITY   = .0011047
INCLINATION    = 51.6308
RA_OF_ASC_NODE = 243.5963
ARG_OF_PERICENTER = 59.0686
MEAN_ANOMALY   = 301.1387

EPHEMERIS_TYPE = 0
CLASSIFICATION_TYPE = U
NORAD_CAT_ID   = 66664
ELEMENT_SET_NO = 999
REV_AT_EPOCH   = 55096
BSTAR          = .19716E-3
MEAN_MOTION_DOT = .10203E-3
MEAN_MOTION_DDOT = 0

CCSDS_OMM_VERS = 2.0
CREATION_DATE  = 
ORIGINATOR     = 

OBJECT_NAME    = DUPLEX
OBJECT_ID      = 1998-067XS
CENTER_NAME    = EARTH
REF_FRAME      = TEME
TIME_SYSTEM    = UTC
MEAN_ELEMENT_THEORY = SGP/SGP4

EPOCH          = 2026-02-03T06:25:56.751744
MEAN_MOTION    = 15.53773658
ECCENTRICITY   = .0001543
INCLINATION    = 51.6285
RA_OF_ASC_NODE = 241.3080
ARG_OF_PERICENTER = 83.3243
MEAN_ANOMALY   = 276.7922

EPHEMERIS_TYPE = 0
CLASSIFICATION_TYPE = U
NORAD_CAT_ID   = 66906
ELEMENT_SET_NO = 999
REV_AT_EPOCH   = 977
BSTAR          = .44815E-3
MEAN_MOTION_DOT = .28914E-3
MEAN_MOTION_DDOT = 0

CCSDS_OMM_VERS = 2.0
CREATION_DATE  = 
ORIGINATOR     = 

OBJECT_NAME    = 1998-067XT
OBJECT_ID      = 1998-067XT
CENTER_NAME    = EARTH
REF_FRAME      = TEME
TIME_SYSTEM    = UTC
MEAN_ELEMENT_THEORY = SGP/SGP4

EPOCH          = 2026-02-03T06:43:53.784768
MEAN_MOTION    = 15.60380820
ECCENTRICITY   = .0002533
INCLINATION    = 51.6261
RA_OF_ASC_NODE = 239.8896
ARG_OF_PERICENTER = 176.7926
MEAN_ANOMALY   = 183.3084

EPHEMERIS_TYPE = 0
CLASSIFICATION_TYPE = U
NORAD_CAT_ID   = 66907
ELEMENT_SET_NO = 999
REV_AT_EPOCH   = 979
BSTAR          = .11172E-2
MEAN_MOTION_DOT = .94027E-3
MEAN_MOTION_DDOT = 0

CCSDS_OMM_VERS = 2.0
CREATION_DATE  = 
ORIGINATOR     = 

OBJECT_NAME    = 1998-067XU
OBJECT_ID      = 1998-067XU
CENTER_NAME    = EARTH
REF_FRAME      = TEME
TIME_SYSTEM    = UTC
MEAN_ELEMENT_THEORY = SGP/SGP4

EPOCH          = 2026-02-01T23:58:39.340416
MEAN_MOTION    = 15.60143030
ECCENTRICITY   = .00025881
INCLINATION    = 51.6258
RA_OF_ASC_NODE = 246.3309
ARG_OF_PERICENTER = 170.0910
MEAN_ANOMALY   = 190.0135

EPHEMERIS_TYPE = 0
CLASSIFICATION_TYPE = U
NORAD_CAT_ID   = 66908
ELEMENT_SET_NO = 999
REV_AT_EPOCH   = 959
BSTAR          = .99129319E-3
MEAN_MOTION_DOT = .82493E-3
MEAN_MOTION_DDOT = 0

