RSP-03                  
1 65732U 98067XL  26033.90971998  .00508006  11474-3  13264-2 0  9996
2 65732  51.6179 226.8088 0005233 241.8921 118.1558 15.94343295 21409
YOTSUBA-KULOVER         
1 65941U 98067XN  26033.98479468  .00107724  00000+0  89351-3 0  9993
2 65941  51.6239 235.6577 0004246 213.0597 147.0135 15.69363652 18030
BOTAN                   
1 65942U 98067XP  26033.58862757  .00279051  00000+0  13893-2 0  9997
2 65942  51.6178 234.4784 0005489 227.7528 132.3009 15.80550278 18016
E-KAGAKU-1              
1 65943U 98067XQ  26033.60316708  .00107496  00000+0  89835-3 0  9994
2 65943  51.6258 237.6202 0003209 222.3729 137.7021 15.69186558 17978
HRC MONOBLOCK CAMERA    
1 66052U 98067XR  26033.98756665  .00045031  00000+0  57903-3 0  9994
2 66052  51.6280 240.1857 0000377  15.4712 344.6292 15.58616618 16977
HTV-X1                  
1 66174U 25241A   26034.04958920  .00010142  00000+0  19604-3 0  9990
2 66174  51.6308 243.5964 0011016  59.0626 301.1443 15.48354905   515
SZ-21 MODULE            
1 66515U 25246C   26034.40768353  .00034121  00000+0  32677-3 0  9991
2 66515  41.4756  53.9721 0003243 270.9806  89.0663 15.65950989 12690
SHENZHOU-22             
1 66645U 25272A   26034.27084582  .00017586  00000+0  22202-3 0  9993
2 66645  41.4675  57.3449 0006247 348.4531  11.6163 15.59135359267644
SOYUZ-MS 28             
1 66664U 25275A   26034.04958913  .00010203  00000+0  19716-3 0  9995
2 66664  51.6308 243.5963 0011047  59.0686 301.1387 15.48354885550961
DUPLEX                  
1 66906U 98067XS  26034.26801796  .00028914  00000+0  44815-3 0  9999
2 66906  51.6285 241.3080 0001543  83.3243 276.7922 15.53773658  9778
1998-067XT              
1 66907U 98067XT  26034.28048362  .00094027  00000+0  11172-2 0  9991
2 66907  51.6261 239.8896 0002533 176.7926 183.3084 15.60380820  9792
1998-067XU              
1 66908U 98067XU  26032.99906644  .00082493  00000+0  99129-3 0  9997
2 66908  51.6258 246.3309 0002588 170.0910 190.0135 15.60143030  9591
